{
  "type": "FeatureCollection",
  "features": [
    {
      "type": "Feature",
      "properties": {
        "norad_id": 35616,
        "name": "IRIDIUM 33 DEB",
        "group": "iridium-33-debris",
        "lat": -49.638312245834,
        "lon": -15.780330173215065,
        "alt_km": 634.9993177768001,
        "timestamp": "2025-12-06T16:45:43.106720+00:00",
        "meta_object_name": "IRIDIUM 33 DEB",
        "meta_object_id": "1997-051QN",
        "meta_epoch": "2025-12-06T07:15:38.847744",
        "meta_mean_motion": 14.81564916,
        "meta_eccentricity": 0.00091957,
        "meta_inclination": 86.3542,
        "meta_ra_of_asc_node": 348.7026,
        "meta_arg_of_pericenter": 186.8662,
        "meta_mean_anomaly": 173.2436,
        "meta_ephemeris_type": 0,
        "meta_classification_type": "U",
        "meta_norad_cat_id": 35616,
        "meta_element_set_no": 999,
        "meta_rev_at_epoch": 87479,
        "meta_bstar": 0.0030438731,
        "meta_mean_motion_dot": 0.00023991,
        "meta_mean_motion_ddot": 0,
        "tle_line1": "1 35616U 97051QN  25340.30253296  .00023991  00000+0  30439-2 0  9991",
        "tle_line2": "2 35616  86.3542 348.7026 0009195 186.8662 173.2436 14.81564916874798"
      },
      "geometry": {
        "type": "Point",
        "coordinates": [
          -15.780330173215065,
          -49.638312245834
        ]
      }
    },
    {
      "type": "Feature",
      "properties": {
        "norad_id": 35618,
        "name": "IRIDIUM 33 DEB",
        "group": "iridium-33-debris",
        "lat": -5.6292337346792,
        "lon": -4.218468343832299,
        "alt_km": 707.4334656367755,
        "timestamp": "2025-12-06T16:45:43.106731+00:00",
        "meta_object_name": "IRIDIUM 33 DEB",
        "meta_object_id": "1997-051QQ",
        "meta_epoch": "2025-12-05T07:42:53.148672",
        "meta_mean_motion": 14.52258119,
        "meta_eccentricity": 0.00302089,
        "meta_inclination": 86.3407,
        "meta_ra_of_asc_node": 356.7447,
        "meta_arg_of_pericenter": 46.3254,
        "meta_mean_anomaly": 314.0448,
        "meta_ephemeris_type": 0,
        "meta_classification_type": "U",
        "meta_norad_cat_id": 35618,
        "meta_element_set_no": 999,
        "meta_rev_at_epoch": 65286,
        "meta_bstar": 0.00091388234,
        "meta_mean_motion_dot": 3.753e-05,
        "meta_mean_motion_ddot": 0,
        "tle_line1": "1 35618U 97051QQ  25339.32144848  .00003753  00000+0  91388-3 0  9990",
        "tle_line2": "2 35618  86.3407 356.7447 0030208  46.3254 314.0448 14.52258119652865"
      },
      "geometry": {
        "type": "Point",
        "coordinates": [
          -4.218468343832299,
          -5.6292337346792
        ]
      }
    },
    {
      "type": "Feature",
      "properties": {
        "norad_id": 35620,
        "name": "IRIDIUM 33 DEB",
        "group": "iridium-33-debris",
        "lat": -69.56706027233085,
        "lon": -149.75226911017984,
        "alt_km": 672.574771523974,
        "timestamp": "2025-12-06T16:45:43.106741+00:00",
        "meta_object_name": "IRIDIUM 33 DEB",
        "meta_object_id": "1997-051QS",
        "meta_epoch": "2025-12-06T02:02:49.416288",
        "meta_mean_motion": 14.3768993,
        "meta_eccentricity": 0.01438549,
        "meta_inclination": 86.3906,
        "meta_ra_of_asc_node": 220.2605,
        "meta_arg_of_pericenter": 280.8706,
        "meta_mean_anomaly": 77.6331,
        "meta_ephemeris_type": 0,
        "meta_classification_type": "U",
        "meta_norad_cat_id": 35620,
        "meta_element_set_no": 999,
        "meta_rev_at_epoch": 59870,
        "meta_bstar": 0.0080397283,
        "meta_mean_motion_dot": 0.00027327,
        "meta_mean_motion_ddot": 0,
        "tle_line1": "1 35620U 97051QS  25340.08529417  .00027327  00000+0  80397-2 0  9997",
        "tle_line2": "2 35620  86.3906 220.2605 0143854 280.8706  77.6331 14.37689930598709"
      },
      "geometry": {
        "type": "Point",
        "coordinates": [
          -149.75226911017984,
          -69.56706027233085
        ]
      }
    },
    {
      "type": "Feature",
      "properties": {
        "norad_id": 35622,
        "name": "IRIDIUM 33 DEB",
        "group": "iridium-33-debris",
        "lat": 17.174289690614167,
        "lon": -92.24711172294575,
        "alt_km": 549.2176407521574,
        "timestamp": "2025-12-06T16:45:43.106751+00:00",
        "meta_object_name": "IRIDIUM 33 DEB",
        "meta_object_id": "1997-051QU",
        "meta_epoch": "2025-12-06T06:10:47.790912",
        "meta_mean_motion": 15.03498314,
        "meta_eccentricity": 0.00106929,
        "meta_inclination": 86.2036,
        "meta_ra_of_asc_node": 266.7937,
        "meta_arg_of_pericenter": 6.4287,
        "meta_mean_anomaly": 145.8832,
        "meta_ephemeris_type": 0,
        "meta_classification_type": "U",
        "meta_norad_cat_id": 35622,
        "meta_element_set_no": 999,
        "meta_rev_at_epoch": 87262,
        "meta_bstar": 0.0085488468,
        "meta_mean_motion_dot": 0.00118453,
        "meta_mean_motion_ddot": 0,
        "tle_line1": "1 35622U 97051QU  25340.25749758  .00118453  00000+0  85488-2 0  9997",
        "tle_line2": "2 35622  86.2036 266.7937 0010692   6.4287 145.8832 15.03498314872624"
      },
      "geometry": {
        "type": "Point",
        "coordinates": [
          -92.24711172294575,
          17.174289690614167
        ]
      }
    },
    {
      "type": "Feature",
      "properties": {
        "norad_id": 35628,
        "name": "IRIDIUM 33 DEB",
        "group": "iridium-33-debris",
        "lat": -78.24026068106451,
        "lon": -6.047262971137045,
        "alt_km": 675.5600226834622,
        "timestamp": "2025-12-06T16:45:43.106761+00:00",
        "meta_object_name": "IRIDIUM 33 DEB",
        "meta_object_id": "1997-051RA",
        "meta_epoch": "2025-12-04T09:28:36.488064",
        "meta_mean_motion": 14.67394134,
        "meta_eccentricity": 0.001144,
        "meta_inclination": 86.3576,
        "meta_ra_of_asc_node": 12.797,
        "meta_arg_of_pericenter": 12.0998,
        "meta_mean_anomaly": 348.0488,
        "meta_ephemeris_type": 0,
        "meta_classification_type": "U",
        "meta_norad_cat_id": 35628,
        "meta_element_set_no": 999,
        "meta_rev_at_epoch": 86324,
        "meta_bstar": 0.0032445,
        "meta_mean_motion_dot": 0.00018408,
        "meta_mean_motion_ddot": 0,
        "tle_line1": "1 35628U 97051RA  25338.39486676  .00018408  00000+0  32445-2 0  9996",
        "tle_line2": "2 35628  86.3576  12.7970 0011440  12.0998 348.0488 14.67394134863246"
      },
      "geometry": {
        "type": "Point",
        "coordinates": [
          -6.047262971137045,
          -78.24026068106451
        ]
      }
    },
    {
      "type": "Feature",
      "properties": {
        "norad_id": 35631,
        "name": "IRIDIUM 33 DEB",
        "group": "iridium-33-debris",
        "lat": -76.02694269821728,
        "lon": -141.63171506840158,
        "alt_km": 748.5445789136829,
        "timestamp": "2025-12-06T16:45:43.106772+00:00",
        "meta_object_name": "IRIDIUM 33 DEB",
        "meta_object_id": "1997-051RD",
        "meta_epoch": "2025-12-06T02:27:05.085216",
        "meta_mean_motion": 14.47282258,
        "meta_eccentricity": 0.00184061,
        "meta_inclination": 86.3675,
        "meta_ra_of_asc_node": 23.8336,
        "meta_arg_of_pericenter": 138.1309,
        "meta_mean_anomaly": 253.4255,
        "meta_ephemeris_type": 0,
        "meta_classification_type": "U",
        "meta_norad_cat_id": 35631,
        "meta_element_set_no": 999,
        "meta_rev_at_epoch": 87101,
        "meta_bstar": 0.00060554798,
        "meta_mean_motion_dot": 2.239e-05,
        "meta_mean_motion_ddot": 0,
        "tle_line1": "1 35631U 97051RD  25340.10214219  .00002239  00000+0  60555-3 0  9993",
        "tle_line2": "2 35631  86.3675  23.8336 0018406 138.1309 253.4255 14.47282258871010"
      },
      "geometry": {
        "type": "Point",
        "coordinates": [
          -141.63171506840158,
          -76.02694269821728
        ]
      }
    },
    {
      "type": "Feature",
      "properties": {
        "norad_id": 35680,
        "name": "IRIDIUM 33 DEB",
        "group": "iridium-33-debris",
        "lat": 81.41434000680778,
        "lon": 51.037480794664184,
        "alt_km": 902.8128671920913,
        "timestamp": "2025-12-06T16:45:43.106782+00:00",
        "meta_object_name": "IRIDIUM 33 DEB",
        "meta_object_id": "1997-051RJ",
        "meta_epoch": "2025-12-01T22:00:09.279648",
        "meta_mean_motion": 14.20616647,
        "meta_eccentricity": 0.01501261,
        "meta_inclination": 86.103,
        "meta_ra_of_asc_node": 26.3138,
        "meta_arg_of_pericenter": 313.2693,
        "meta_mean_anomaly": 168.1986,
        "meta_ephemeris_type": 0,
        "meta_classification_type": "U",
        "meta_norad_cat_id": 35680,
        "meta_element_set_no": 999,
        "meta_rev_at_epoch": 60547,
        "meta_bstar": 0.0036692718,
        "meta_mean_motion_dot": 8.864e-05,
        "meta_mean_motion_ddot": 0,
        "tle_line1": "1 35680U 97051RJ  25335.91677407  .00008864  00000+0  36693-2 0  9997",
        "tle_line2": "2 35680  86.1030  26.3138 0150126 313.2693 168.1986 14.20616647605475"
      },
      "geometry": {
        "type": "Point",
        "coordinates": [
          51.037480794664184,
          81.41434000680778
        ]
      }
    }
  ]
}